{"type": "FeatureCollection", "features": [{"type": "Feature", "properties": {"norad_id": 28890, "name": "BEIJING 1", "group": "dmc", "lat": 70.85623719664562, "lon": 86.44903005186269, "alt_km": 673.1732087480268, "timestamp": "2025-12-09T16:56:36.246894+00:00", "meta": {"OBJECT_NAME": "BEIJING 1", "OBJECT_ID": "2005-043A", "EPOCH": "2025-12-09T13:19:48.248256", "MEAN_MOTION": 14.63361973, "ECCENTRICITY": 0.0015141, "INCLINATION": 98.2657, "RA_OF_ASC_NODE": 111.0549, "ARG_OF_PERICENTER": 150.8072, "MEAN_ANOMALY": 209.3979, "EPHEMERIS_TYPE": 0, "CLASSIFICATION_TYPE": "U", "NORAD_CAT_ID": 28890, "ELEMENT_SET_NO": 999, "REV_AT_EPOCH": 7291, "BSTAR": 0.00016876, "MEAN_MOTION_DOT": 8.24e-06, "MEAN_MOTION_DDOT": 0}, "tle": {"line1": "1 28890U 05043A   25343.55541954  .00000824  00000+0  16876-3 0  9998", "line2": "2 28890  98.2657 111.0549 0015141 150.8072 209.3979 14.63361973 72913"}}, "geometry": {"type": "Point", "coordinates": [86.44903005186269, 70.85623719664562]}}, {"type": "Feature", "properties": {"norad_id": 33320, "name": "HUANJING 1A (HJ-1A)", "group": "dmc", "lat": -61.07083909870629, "lon": 138.04861644075046, "alt_km": 639.3988632964674, "timestamp": "2025-12-09T16:56:36.246921+00:00", "meta": {"OBJECT_NAME": "HUANJING 1A (HJ-1A)", "OBJECT_ID": "2008-041A", "EPOCH": "2025-12-09T12:37:06.322368", "MEAN_MOTION": 14.83375808, "ECCENTRICITY": 0.0020346, "INCLINATION": 97.654, "RA_OF_ASC_NODE": 331.9582, "ARG_OF_PERICENTER": 44.4893, "MEAN_ANOMALY": 315.7951, "EPHEMERIS_TYPE": 0, "CLASSIFICATION_TYPE": "U", "NORAD_CAT_ID": 33320, "ELEMENT_SET_NO": 999, "REV_AT_EPOCH": 93028, "BSTAR": 0.0001528, "MEAN_MOTION_DOT": 1.206e-05, "MEAN_MOTION_DDOT": 0}, "tle": {"line1": "1 33320U 08041A   25343.52576762  .00001206  00000+0  15280-3 0  9998", "line2": "2 33320  97.6540 331.9582 0020346  44.4893 315.7951 14.83375808930282"}}, "geometry": {"type": "Point", "coordinates": [138.04861644075046, -61.07083909870629]}}, {"type": "Feature", "properties": {"norad_id": 33321, "name": "HUANJING 1B (HJ-1B)", "group": "dmc", "lat": 69.01650432909753, "lon": 176.321385828407, "alt_km": 589.3545435078977, "timestamp": "2025-12-09T16:56:36.246936+00:00", "meta": {"OBJECT_NAME": "HUANJING 1B (HJ-1B)", "OBJECT_ID": "2008-041B", "EPOCH": "2025-12-09T13:12:53.068608", "MEAN_MOTION": 14.82809317, "ECCENTRICITY": 0.0038268, "INCLINATION": 97.6398, "RA_OF_ASC_NODE": 335.6873, "ARG_OF_PERICENTER": 85.7251, "MEAN_ANOMALY": 274.8335, "EPHEMERIS_TYPE": 0, "CLASSIFICATION_TYPE": "U", "NORAD_CAT_ID": 33321, "ELEMENT_SET_NO": 999, "REV_AT_EPOCH": 93030, "BSTAR": 0.00028078, "MEAN_MOTION_DOT": 2.249e-05, "MEAN_MOTION_DDOT": 0}, "tle": {"line1": "1 33321U 08041B   25343.55061422  .00002249  00000+0  28078-3 0  9991", "line2": "2 33321  97.6398 335.6873 0038268  85.7251 274.8335 14.82809317930306"}}, "geometry": {"type": "Point", "coordinates": [176.321385828407, 69.01650432909753]}}, {"type": "Feature", "properties": {"norad_id": 33446, "name": "YAOGAN-4", "group": "dmc", "lat": 22.245181103607553, "lon": -89.42835779563478, "alt_km": 614.2633669717961, "timestamp": "2025-12-09T16:56:36.246949+00:00", "meta": {"OBJECT_NAME": "YAOGAN-4", "OBJECT_ID": "2008-061A", "EPOCH": "2025-12-09T10:21:49.775040", "MEAN_MOTION": 14.82667366, "ECCENTRICITY": 0.0013862, "INCLINATION": 97.9179, "RA_OF_ASC_NODE": 273.5635, "ARG_OF_PERICENTER": 334.6053, "MEAN_ANOMALY": 25.4478, "EPHEMERIS_TYPE": 0, "CLASSIFICATION_TYPE": "U", "NORAD_CAT_ID": 33446, "ELEMENT_SET_NO": 999, "REV_AT_EPOCH": 91754, "BSTAR": 0.00036362, "MEAN_MOTION_DOT": 2.883e-05, "MEAN_MOTION_DDOT": 0}, "tle": {"line1": "1 33446U 08061A   25343.43182610  .00002883  00000+0  36362-3 0  9990", "line2": "2 33446  97.9179 273.5635 0013862 334.6053  25.4478 14.82667366917544"}}, "geometry": {"type": "Point", "coordinates": [-89.42835779563478, 22.245181103607553]}}, {"type": "Feature", "properties": {"norad_id": 35681, "name": "DEIMOS-1", "group": "dmc", "lat": -55.89687328314031, "lon": -47.09812021297229, "alt_km": 654.0925288834551, "timestamp": "2025-12-09T16:56:36.246960+00:00", "meta": {"OBJECT_NAME": "DEIMOS-1", "OBJECT_ID": "2009-041A", "EPOCH": "2025-12-09T12:37:03.758880", "MEAN_MOTION": 14.74944275, "ECCENTRICITY": 0.0002716, "INCLINATION": 97.7147, "RA_OF_ASC_NODE": 144.2784, "ARG_OF_PERICENTER": 84.5608, "MEAN_ANOMALY": 275.5911, "EPHEMERIS_TYPE": 0, "CLASSIFICATION_TYPE": "U", "NORAD_CAT_ID": 35681, "ELEMENT_SET_NO": 999, "REV_AT_EPOCH": 87892, "BSTAR": 0.00014579, "MEAN_MOTION_DOT": 9.32e-06, "MEAN_MOTION_DDOT": 0}, "tle": {"line1": "1 35681U 09041A   25343.52573795  .00000932  00000+0  14579-3 0  9999", "line2": "2 35681  97.7147 144.2784 0002716  84.5608 275.5911 14.74944275878928"}}, "geometry": {"type": "Point", "coordinates": [-47.09812021297229, -55.89687328314031]}}, {"type": "Feature", "properties": {"norad_id": 35683, "name": "UK-DMC 2", "group": "dmc", "lat": -63.30290483206925, "lon": -77.24193397468126, "alt_km": 651.2410480463022, "timestamp": "2025-12-09T16:56:36.246971+00:00", "meta": {"OBJECT_NAME": "UK-DMC 2", "OBJECT_ID": "2009-041C", "EPOCH": "2025-12-09T12:35:04.481088", "MEAN_MOTION": 14.75609595, "ECCENTRICITY": 0.0001384, "INCLINATION": 97.8563, "RA_OF_ASC_NODE": 118.518, "ARG_OF_PERICENTER": 97.2481, "MEAN_ANOMALY": 262.8886, "EPHEMERIS_TYPE": 0, "CLASSIFICATION_TYPE": "U", "NORAD_CAT_ID": 35683, "ELEMENT_SET_NO": 999, "REV_AT_EPOCH": 87859, "BSTAR": 0.00019748, "MEAN_MOTION_DOT": 1.298e-05, "MEAN_MOTION_DDOT": 0}, "tle": {"line1": "1 35683U 09041C   25343.52435742  .00001298  00000+0  19748-3 0  9999", "line2": "2 35683  97.8563 118.5180 0001384  97.2481 262.8886 14.75609595878594"}}, "geometry": {"type": "Point", "coordinates": [-77.24193397468126, -63.30290483206925]}}, {"type": "Feature", "properties": {"norad_id": 40715, "name": "DMC3-FM1", "group": "dmc", "lat": -6.308319566439254, "lon": 30.155021751578374, "alt_km": 618.8915357636242, "timestamp": "2025-12-09T16:56:36.246983+00:00", "meta": {"OBJECT_NAME": "DMC3-FM1", "OBJECT_ID": "2015-032A", "EPOCH": "2025-12-09T12:52:26.225760", "MEAN_MOTION": 14.85433063, "ECCENTRICITY": 0.0004846, "INCLINATION": 97.669, "RA_OF_ASC_NODE": 210.8452, "ARG_OF_PERICENTER": 333.9689, "MEAN_ANOMALY": 26.1282, "EPHEMERIS_TYPE": 0, "CLASSIFICATION_TYPE": "U", "NORAD_CAT_ID": 40715, "ELEMENT_SET_NO": 999, "REV_AT_EPOCH": 56175, "BSTAR": 0.00019204, "MEAN_MOTION_DOT": 1.604e-05, "MEAN_MOTION_DDOT": 0}, "tle": {"line1": "1 40715U 15032A   25343.53641465  .00001604  00000+0  19204-3 0  9998", "line2": "2 40715  97.6690 210.8452 0004846 333.9689  26.1282 14.85433063561753"}}, "geometry": {"type": "Point", "coordinates": [30.155021751578374, -6.308319566439254]}}, {"type": "Feature", "properties": {"norad_id": 40716, "name": "DMC3-FM2", "group": "dmc", "lat": 64.92047484577898, "lon": -164.29609082224903, "alt_km": 605.7692361233076, "timestamp": "2025-12-09T16:56:36.246993+00:00", "meta": {"OBJECT_NAME": "DMC3-FM2", "OBJECT_ID": "2015-032B", "EPOCH": "2025-12-09T13:24:50.146272", "MEAN_MOTION": 14.85432848, "ECCENTRICITY": 0.0005576, "INCLINATION": 97.6747, "RA_OF_ASC_NODE": 212.3085, "ARG_OF_PERICENTER": 338.5606, "MEAN_ANOMALY": 21.5375, "EPHEMERIS_TYPE": 0, "CLASSIFICATION_TYPE": "U", "NORAD_CAT_ID": 40716, "ELEMENT_SET_NO": 999, "REV_AT_EPOCH": 56175, "BSTAR": 0.00010511, "MEAN_MOTION_DOT": 8.54e-06, "MEAN_MOTION_DDOT": 0}, "tle": {"line1": "1 40716U 15032B   25343.55891373  .00000854  00000+0  10511-3 0  9994", "line2": "2 40716  97.6747 212.3085 0005576 338.5606  21.5375 14.85432848561759"}}, "geometry": {"type": "Point", "coordinates": [-164.29609082224903, 64.92047484577898]}}, {"type": "Feature", "properties": {"norad_id": 40717, "name": "DMC3-FM3", "group": "dmc", "lat": -48.93064085482406, "lon": -137.01039781103256, "alt_km": 616.1238763625506, "timestamp": "2025-12-09T16:56:36.247004+00:00", "meta": {"OBJECT_NAME": "DMC3-FM3", "OBJECT_ID": "2015-032C", "EPOCH": "2025-12-09T13:55:56.604000", "MEAN_MOTION": 14.85421371, "ECCENTRICITY": 0.0004942, "INCLINATION": 97.6801, "RA_OF_ASC_NODE": 213.9602, "ARG_OF_PERICENTER": 339.7301, "MEAN_ANOMALY": 20.3718, "EPHEMERIS_TYPE": 0, "CLASSIFICATION_TYPE": "U", "NORAD_CAT_ID": 40717, "ELEMENT_SET_NO": 999, "REV_AT_EPOCH": 56176, "BSTAR": 7.151e-05, "MEAN_MOTION_DOT": 5.65e-06, "MEAN_MOTION_DDOT": 0}, "tle": {"line1": "1 40717U 15032C   25343.58051625  .00000565  00000+0  71510-4 0  9992", "line2": "2 40717  97.6801 213.9602 0004942 339.7301  20.3718 14.85421371561762"}}, "geometry": {"type": "Point", "coordinates": [-137.01039781103256, -48.93064085482406]}}]}